{
  "type": "FeatureCollection",
  "features": [
    {
      "type": "Feature",
      "properties": {
        "norad_id": 28051,
        "name": "IRS-P6 (RESOURCESAT-1)",
        "group": "resource",
        "lat": 46.86515885921012,
        "lon": -133.29578110304976,
        "alt_km": 722.502688263733,
        "timestamp": "2025-12-23T22:42:32.634490+00:00",
        "meta_object_name": "IRS-P6 (RESOURCESAT-1)",
        "meta_object_id": "2003-046A",
        "meta_epoch": "2025-12-23T07:28:03.612288",
        "meta_mean_motion": 14.3607988,
        "meta_eccentricity": 0.00648027,
        "meta_inclination": 98.2161,
        "meta_ra_of_asc_node": 37.2278,
        "meta_arg_of_pericenter": 149.0835,
        "meta_mean_anomaly": 302.2513,
        "meta_ephemeris_type": 0,
        "meta_classification_type": "U",
        "meta_norad_cat_id": 28051,
        "meta_element_set_no": 999,
        "meta_rev_at_epoch": 15528,
        "meta_bstar": 0.00013815494,
        "meta_mean_motion_dot": 3.71e-06,
        "meta_mean_motion_ddot": 0,
        "tle_line1": "1 28051U 03046A   25357.31115292  .00000371  00000+0  13815-3 0  9996",
        "tle_line2": "2 28051  98.2161  37.2278 0064802 149.0835 302.2513 14.36079880155287"
      },
      "geometry": {
        "type": "Point",
        "coordinates": [
          -133.29578110304976,
          46.86515885921012
        ]
      }
    },
    {
      "type": "Feature",
      "properties": {
        "norad_id": 28220,
        "name": "SHIYAN-1 (SY-1)",
        "group": "resource",
        "lat": 58.460905175536894,
        "lon": -106.79013934276354,
        "alt_km": 478.2077496687816,
        "timestamp": "2025-12-23T22:42:32.634501+00:00",
        "meta_object_name": "SHIYAN-1 (SY-1)",
        "meta_object_id": "2004-012A",
        "meta_epoch": "2025-12-22T14:45:27.777312",
        "meta_mean_motion": 15.28385055,
        "meta_eccentricity": 0.00051571,
        "meta_inclination": 97.892,
        "meta_ra_of_asc_node": 58.737,
        "meta_arg_of_pericenter": 284.0622,
        "meta_mean_anomaly": 76.0043,
        "meta_ephemeris_type": 0,
        "meta_classification_type": "U",
        "meta_norad_cat_id": 28220,
        "meta_element_set_no": 999,
        "meta_rev_at_epoch": 18407,
        "meta_bstar": 0.00053102877,
        "meta_mean_motion_dot": 0.00014614,
        "meta_mean_motion_ddot": 0,
        "tle_line1": "1 28220U 04012A   25356.61490483  .00014614  00000+0  53103-3 0  9997",
        "tle_line2": "2 28220  97.8920  58.7370 0005157 284.0622  76.0043 15.28385055184075"
      },
      "geometry": {
        "type": "Point",
        "coordinates": [
          -106.79013934276354,
          58.460905175536894
        ]
      }
    },
    {
      "type": "Feature",
      "properties": {
        "norad_id": 28376,
        "name": "AURA",
        "group": "resource",
        "lat": -37.62575279384703,
        "lon": -45.297372486285745,
        "alt_km": 697.0350291828772,
        "timestamp": "2025-12-23T22:42:32.634512+00:00",
        "meta_object_name": "AURA",
        "meta_object_id": "2004-026A",
        "meta_epoch": "2025-12-23T03:09:30.661632",
        "meta_mean_motion": 14.60969302,
        "meta_eccentricity": 0.00014033,
        "meta_inclination": 98.3201,
        "meta_ra_of_asc_node": 307.4073,
        "meta_arg_of_pericenter": 91.9299,
        "meta_mean_anomaly": 268.2062,
        "meta_ephemeris_type": 0,
        "meta_classification_type": "U",
        "meta_norad_cat_id": 28376,
        "meta_element_set_no": 999,
        "meta_rev_at_epoch": 14050,
        "meta_bstar": 0.00021272899,
        "meta_mean_motion_dot": 9.95e-06,
        "meta_mean_motion_ddot": 0,
        "tle_line1": "1 28376U 04026A   25357.13160488  .00000995  00000+0  21273-3 0  9991",
        "tle_line2": "2 28376  98.3201 307.4073 0001403  91.9299 268.2062 14.60969302140508"
      },
      "geometry": {
        "type": "Point",
        "coordinates": [
          -45.297372486285745,
          -37.62575279384703
        ]
      }
    },
    {
      "type": "Feature",
      "properties": {
        "norad_id": 28649,
        "name": "IRS-P5 (CARTOSAT-1)",
        "group": "resource",
        "lat": -76.49407497663331,
        "lon": 57.37108366590218,
        "alt_km": 604.1956950133963,
        "timestamp": "2025-12-23T22:42:32.634523+00:00",
        "meta_object_name": "IRS-P5 (CARTOSAT-1)",
        "meta_object_id": "2005-017A",
        "meta_epoch": "2025-12-23T02:06:56.284416",
        "meta_mean_motion": 14.90437763,
        "meta_eccentricity": 6.18e-05,
        "meta_inclination": 97.5483,
        "meta_ra_of_asc_node": 23.0421,
        "meta_arg_of_pericenter": 56.4975,
        "meta_mean_anomaly": 303.6302,
        "meta_ephemeris_type": 0,
        "meta_classification_type": "U",
        "meta_norad_cat_id": 28649,
        "meta_element_set_no": 999,
        "meta_rev_at_epoch": 11758,
        "meta_bstar": 0.00016366764,
        "meta_mean_motion_dot": 1.543e-05,
        "meta_mean_motion_ddot": 0,
        "tle_line1": "1 28649U 05017A   25357.08815144  .00001543  00000+0  16367-3 0  9993",
        "tle_line2": "2 28649  97.5483  23.0421 0000618  56.4975 303.6302 14.90437763117583"
      },
      "geometry": {
        "type": "Point",
        "coordinates": [
          57.37108366590218,
          -76.49407497663331
        ]
      }
    },
    {
      "type": "Feature",
      "properties": {
        "norad_id": 28893,
        "name": "SINAH 1",
        "group": "resource",
        "lat": -68.89762489399035,
        "lon": 148.64849662038753,
        "alt_km": 698.6648752022256,
        "timestamp": "2025-12-23T22:42:32.634534+00:00",
        "meta_object_name": "SINAH 1",
        "meta_object_id": "2005-043D",
        "meta_epoch": "2025-12-23T06:37:40.577376",
        "meta_mean_motion": 14.63973022,
        "meta_eccentricity": 0.00156955,
        "meta_inclination": 98.2609,
        "meta_ra_of_asc_node": 125.8619,
        "meta_arg_of_pericenter": 106.2589,
        "meta_mean_anomaly": 254.0341,
        "meta_ephemeris_type": 0,
        "meta_classification_type": "U",
        "meta_norad_cat_id": 28893,
        "meta_element_set_no": 999,
        "meta_rev_at_epoch": 7478,
        "meta_bstar": 8.7326229e-05,
        "meta_mean_motion_dot": 4.09e-06,
        "meta_mean_motion_ddot": 0,
        "tle_line1": "1 28893U 05043D   25357.27616409  .00000409  00000+0  87326-4 0  9991",
        "tle_line2": "2 28893  98.2609 125.8619 0015695 106.2589 254.0341 14.63973022 74787"
      },
      "geometry": {
        "type": "Point",
        "coordinates": [
          148.64849662038753,
          -68.89762489399035
        ]
      }
    },
    {
      "type": "Feature",
      "properties": {
        "norad_id": 29079,
        "name": "EROS B",
        "group": "resource",
        "lat": -69.13623444777375,
        "lon": -84.70384971641765,
        "alt_km": 359.46570119193075,
        "timestamp": "2025-12-23T22:42:32.634545+00:00",
        "meta_object_name": "EROS B",
        "meta_object_id": "2006-014A",
        "meta_epoch": "2025-12-23T07:53:40.633728",
        "meta_mean_motion": 15.71626082,
        "meta_eccentricity": 0.00040283,
        "meta_inclination": 97.3464,
        "meta_ra_of_asc_node": 114.4326,
        "meta_arg_of_pericenter": 311.2256,
        "meta_mean_anomaly": 48.8659,
        "meta_ephemeris_type": 0,
        "meta_classification_type": "U",
        "meta_norad_cat_id": 29079,
        "meta_element_set_no": 999,
        "meta_rev_at_epoch": 9246,
        "meta_bstar": 0.0013773708,
        "meta_mean_motion_dot": 0.0018027,
        "meta_mean_motion_ddot": 0,
        "tle_line1": "1 29079U 06014A   25357.32894252  .00180270  00000+0  13774-2 0  9996",
        "tle_line2": "2 29079  97.3464 114.4326 0004028 311.2256  48.8659 15.71626082 92466"
      },
      "geometry": {
        "type": "Point",
        "coordinates": [
          -84.70384971641765,
          -69.13623444777375
        ]
      }
    },
    {
      "type": "Feature",
      "properties": {
        "norad_id": 29228,
        "name": "RESURS-DK 1",
        "group": "resource",
        "lat": 15.082319974953524,
        "lon": 78.53132942674723,
        "alt_km": 532.6242509348631,
        "timestamp": "2025-12-23T22:42:32.634556+00:00",
        "meta_object_name": "RESURS-DK 1",
        "meta_object_id": "2006-021A",
        "meta_epoch": "2025-12-22T14:53:15.203040",
        "meta_mean_motion": 15.12212397,
        "meta_eccentricity": 0.00068623,
        "meta_inclination": 69.9337,
        "meta_ra_of_asc_node": 76.3031,
        "meta_arg_of_pericenter": 250.1947,
        "meta_mean_anomaly": 109.8479,
        "meta_ephemeris_type": 0,
        "meta_classification_type": "U",
        "meta_norad_cat_id": 29228,
        "meta_element_set_no": 999,
        "meta_rev_at_epoch": 7587,
        "meta_bstar": 0.00016259773,
        "meta_mean_motion_dot": 2.709e-05,
        "meta_mean_motion_ddot": 0,
        "tle_line1": "1 29228U 06021A   25356.62031485  .00002709  00000+0  16260-3 0  9997",
        "tle_line2": "2 29228  69.9337  76.3031 0006862 250.1947 109.8479 15.12212397 75870"
      },
      "geometry": {
        "type": "Point",
        "coordinates": [
          78.53132942674723,
          15.082319974953524
        ]
      }
    }
  ]
}